[
 {
   "Restaurants": "Gia Mia",
   "Street": "106 N Hale St",
   "City": "Wheaton",
   "State": "IL",
   "Zip": 60187
 },
 {
   "Restaurants": "Warrens Ale House",
   "Street": "51 Town Square",
   "City": "Wheaton",
   "State": "IL",
   "Zip": 60189
 },
 {
   "Restaurants": "Uncle Julios",
   "Street": "2360 Fountain Square Dr",
   "City": "Lombard",
   "State": "IL",
   "Zip": 60148
 },
 {
   "Restaurants": "Ginos East",
   "Street": "315 W Front St",
   "City": "Wheaton",
   "State": "IL",
   "Zip": 60187
 },
 {
   "Restaurants": "Ground Level 105",
   "Street": "105 W St Charles Rd",
   "City": "Lombard",
   "State": "IL",
   "Zip": 60148
 },
 {
   "Restaurants": "Weber Grill",
   "Street": "2331 Fountain Square Dr",
   "City": "Lombard",
   "State": "IL",
   "Zip": 60148
 },
 {
   "Restaurants": "Roka Akur",
   "Street": "166 Oakbrook Center",
   "City": "Oak Brook",
   "State": "IL",
   "Zip": 60523
 },
 {
   "Restaurants": "Redstone American Grill",
   "Street": "13 Lincoln Center",
   "City": "Oakbrook Terrace",
   "State": "IL",
   "Zip": 60181
 },
 {
   "Restaurants": "Brooks Kitchen & Tap",
   "Street": "1919 S Meyers Rd",
   "City": "Oakbrook Terrace",
   "State": "IL",
   "Zip": 60181
 },
 {
   "Restaurants": "Mortons",
   "Street": "1751 Freedom Dr",
   "City": "Naperville",
   "State": "IL",
   "Zip": 60563
 },
 {
   "Restaurants": "Blanco",
   "Street": "2022 Spring Rd",
   "City": "Oak Brook",
   "State": "IL",
   "Zip": 60523
 },
 {
   "Restaurants": "Ditkas",
   "Street": "225 W Front St",
   "City": "Wheaton",
   "State": "IL",
   "Zip": 60187
 },
 {
   "Restaurants": "Kona Grill",
   "Street": " 3051 E Butterfield Rd",
   "City": "Oak Brook",
   "State": "IL",
   "Zip": 60523
 },
 {
   "Restaurants": "PF Changs",
   "Street": " 2361 Fountain Square Dr",
   "City": "Lombard",
   "State": "IL",
   "Zip": 60148
 },
 {
   "Restaurants": "Uncles Julios",
   "Street": " 2360 Fountain Square Dr",
   "City": "Lombard",
   "State": "IL",
   "Zip": 60148
 },
 {
   "Restaurants": "Yardhouse",
   "Street": " 2301 Fountain Square Dr",
   "City": "Lombard",
   "State": "IL",
   "Zip": 60148
 },
 {
   "Restaurants": "Cheesecake Factory",
   "Street": "2020 Spring Rd",
   "City": "Oak Brook",
   "State": "IL",
   "Zip": 60523
 }
]